*******************************************************************************
JPL/HORIZONS             486958 Arrokoth (2014 MU69)       2024-May-20 08:23:55
Rec #:  486958 (+COV) Soln.date: 2024-Feb-21_21:21:36    # obs: 112 (2014-2018)
 
IAU76/J2000 helio. ecliptic osc. elements (au, days, deg., period=Julian yrs):
 
  EPOCH=  2458101.5 ! 2017-Dec-14.00 (TDB)         Residual RMS= .00066411
   EC= .03868645692376498  QR= 42.72577233600888   TP= 2472213.5237931227
   OM= 158.939446659904    W=  176.1507602341478   IN= 2.45301305206896
   A= 44.44519963724322    MA= 313.05859524999     ADIST= 46.16462693847756
   PER= 296.30944          N= .003326341           ANGMOM= .114595783
   DAN= 46.16044           DDN= 42.72936           L= 335.0937235
   B= .1646241             MOID= 41.71509933       TP= 2056-Aug-03.0237931227
 
Asteroid physical parameters (km, seconds, rotational period in hours):
   GM= n.a.                RAD= n.a.               ROTPER= 15.918
   H= 11.06                G= .150                 B-V= n.a.
                           ALBEDO= n.a.            STYP= n.a.

ASTEROID comments: 
1: soln ref.= JPL#3, OCC=4
2: source=ORB
*******************************************************************************


*******************************************************************************
Ephemeris / WWW_USER Mon May 20 08:23:56 2024 Pasadena, USA      / Horizons    
*******************************************************************************
Target body name: 486958 Arrokoth (2014 MU69)     {source: JPL#3}
Center body name: Sun (10)                        {source: DE441}
Center-site name: BODYCENTRIC
*******************************************************************************
Start time      : A.D. 1900-Jan-01 00:00:00.0000 UT      
Stop  time      : A.D. 2200-Jan-01 00:00:00.0000 UT      
Step-size       : 1 calendar year
*******************************************************************************
Target pole/equ : IAU                             {East-longitude positive}
Target radii    : 11.0, 10.0, 3.5 km              {Equator_a, b, pole_c}       
Center geodetic : 0.0, 0.0, -695700.0             {E-lon(deg),Lat(deg),Alt(km)}
Center cylindric: 0.0, 0.0, 0.0                   {E-lon(deg),Dxy(km),Dz(km)}
Center pole/equ : IAU_SUN                         {East-longitude positive}
Center radii    : 695700.0, 695700.0, 695700.0 km {Equator_a, b, pole_c}       
Target primary  : Sun
Vis. interferer : None
Rel. light bend : Sun                             {source: DE441}
Rel. lght bnd GM: 1.3271E+11 km^3/s^2                                          
Small-body perts: Yes                             {source: SB441-N16}
Atmos refraction: NO (AIRLESS)
RA format       : DEG
Time format     : CAL 
Calendar mode   : Mixed Julian/Gregorian
EOP file        : eop.240517.p240810                                           
EOP coverage    : DATA-BASED 1962-JAN-20 TO 2024-MAY-17. PREDICTS-> 2024-AUG-09
Units conversion: 1 au= 149597870.700 km, c= 299792.458 km/s, 1 day= 86400.0 s 
Table cut-offs 1: Elevation (-90.0deg=NO ),Airmass     n.a.    , Daylight (NO )
Table cut-offs 2: Solar elongation (  0.0,180.0=NO ),Local Hour Angle( 0.0=NO )
Table cut-offs 3: RA/DEC angular rate (     0.0=NO )                           
Table format    : Comma Separated Values (spreadsheet)
*******************************************************************************
Initial IAU76/J2000 heliocentric ecliptic osculating elements (au, days, deg.):
  EPOCH=  2458101.5 ! 2017-Dec-14.00 (TDB)         Residual RMS= .00066411     
   EC= .03868645692376498  QR= 42.72577233600888   TP= 2472213.5237931227      
   OM= 158.939446659904    W=  176.1507602341478   IN= 2.45301305206896        
  Equivalent ICRF heliocentric cartesian coordinates (au, au/d):
   X= 1.107531870632331E+01  Y=-3.898605591950117E+01  Z=-1.526520060141716E+01
  VX= 2.538087724131930E-03 VY= 7.145491198143598E-04 VZ= 2.345763606455680E-04
Asteroid physical parameters (km, seconds, rotational period in hours):        
   GM= n.a.                RAD= n.a.               ROTPER= 15.918              
   H= 11.06                G= .150                 B-V= n.a.                   
                           ALBEDO= n.a.            STYP= n.a.                  
*******************************************************************************
 Date__(UT)__HR:MN, , , hEcl-Lon,hEcl-Lat,      PlAng,  Tru_Anom,  App_Lon_Sun,
*******************************************************************************
$$SOE
 1968-Jan-01 00:00, , , 223.4075,  2.2089,   -0.00008,  240.6062,  180.5929875,
 1969-Jan-01 00:00, , , 224.5942,  2.2303,    0.00000,  245.5161,  181.7790067,
 1970-Jan-01 00:00, , , 225.7805,  2.2507,    0.00010,  249.7328,  182.9645124,
 1971-Jan-01 00:00, , , 226.9690,  2.2702,    0.00018,  252.1878,  184.1522480,
 1972-Jan-01 00:00, , , 228.1591,  2.2888,    0.00023,  252.7718,  185.3416183,
 1973-Jan-01 00:00, , , 229.3535,  2.3065,    0.00022,  251.6658,  186.5352113,
 1974-Jan-01 00:00, , , 230.5450,  2.3232,    0.00015,  249.0953,  187.7259529,
 1975-Jan-01 00:00, , , 231.7367,  2.3390,    0.00003,  246.3723,  188.9168268,
 1976-Jan-01 00:00, , , 232.9289,  2.3538,   -0.00011,  244.3783,  190.1080494,
 1977-Jan-01 00:00, , , 234.1255,  2.3676,   -0.00022,  244.1853,  191.3036500,
 1978-Jan-01 00:00, , , 235.3209,  2.3803,   -0.00027,  246.5389,  192.4980551,
 1979-Jan-01 00:00, , , 236.5194,  2.3919,   -0.00025,  250.9761,  193.6953965,
 1980-Jan-01 00:00, , , 237.7213,  2.4024,   -0.00018,  256.8640,  194.8961705,
 1981-Jan-01 00:00, , , 238.9300,  2.4119,   -0.00005,  262.9495,  196.1037669,
 1982-Jan-01 00:00, , , 240.1386,  2.4203,    0.00008,  267.6693,  197.3113925,
 1983-Jan-01 00:00, , , 241.3501,  2.4276,    0.00021,  270.6887,  198.5218687,
 1984-Jan-01 00:00, , , 242.5637,  2.4340,    0.00029,  271.5144,  199.7345364,
 1985-Jan-01 00:00, , , 243.7821,  2.4393,    0.00032,  270.2509,  200.9519956,
 1986-Jan-01 00:00, , , 244.9978,  2.4435,    0.00028,  267.6825,  202.1668003,
 1987-Jan-01 00:00, , , 246.2138,  2.4467,    0.00019,  264.3576,  203.3817950,
 1988-Jan-01 00:00, , , 247.4301,  2.4488,    0.00008,  261.8017,  204.5969675,
 1989-Jan-01 00:00, , , 248.6506,  2.4499,    0.00000,  261.1025,  205.8162102,
 1990-Jan-01 00:00, , , 249.8695,  2.4497,   -0.00004,  262.6323,  207.0338471,
 1991-Jan-01 00:00, , , 251.0911,  2.4484,   -0.00001,  266.4907,  208.2540993,
 1992-Jan-01 00:00, , , 252.3159,  2.4459,    0.00007,  271.5297,  209.4775816,
 1993-Jan-01 00:00, , , 253.5474,  2.4422,    0.00017,  276.5512,  210.7079361,
 1994-Jan-01 00:00, , , 254.7789,  2.4374,    0.00029,  280.7769,  211.9382989,
 1995-Jan-01 00:00, , , 256.0132,  2.4315,    0.00037,  283.1871,  213.1716911,
 1996-Jan-01 00:00, , , 257.2498,  2.4245,    0.00041,  283.8180,  214.4075140,
 1997-Jan-01 00:00, , , 258.4915,  2.4164,    0.00038,  282.6526,  215.6483308,
 1998-Jan-01 00:00, , , 259.7305,  2.4072,    0.00028,  279.8424,  216.8865708,
 1999-Jan-01 00:00, , , 260.9697,  2.3970,    0.00014,  276.4971,  218.1249050,
 2000-Jan-01 00:00, , , 262.2091,  2.3857,   -0.00002,  273.5577,  219.3631758,
 2001-Jan-01 00:00, , , 263.4524,  2.3731,   -0.00015,  272.3189,  220.6052967,
 2002-Jan-01 00:00, , , 264.6938,  2.3595,   -0.00022,  273.7030,  221.8453846,
 2003-Jan-01 00:00, , , 265.9376,  2.3446,   -0.00022,  277.2806,  223.0878794,
 2004-Jan-01 00:00, , , 267.1845,  2.3285,   -0.00016,  282.5479,  224.3335500,
 2005-Jan-01 00:00, , , 268.4382,  2.3112,   -0.00006,  288.2631,  225.5861922,
 2006-Jan-01 00:00, , , 269.6919,  2.2927,    0.00004,  293.0170,  226.8391142,
 2007-Jan-01 00:00, , , 270.9489,  2.2732,    0.00013,  296.4812,  228.0954485,
 2008-Jan-01 00:00, , , 272.2087,  2.2525,    0.00017,  298.0238,  229.3546903,
 2009-Jan-01 00:00, , , 273.4740,  2.2307,    0.00016,  297.7236,  230.6195593,
 2010-Jan-01 00:00, , , 274.7370,  2.2079,    0.00008,  296.0389,  231.8821290,
 2011-Jan-01 00:00, , , 276.0005,  2.1841,   -0.00003,  293.4138,  233.1450679,
 2012-Jan-01 00:00, , , 277.2642,  2.1592,   -0.00014,  291.2151,  234.4080010,
 2013-Jan-01 00:00, , , 278.5319,  2.1332,   -0.00021,  290.6061,  235.6746698,
 2014-Jan-01 00:00, , , 279.7972,  2.1060,   -0.00022,  292.0947,  236.9390669,
 2015-Jan-01 00:00, , , 281.0647,  2.0778,   -0.00017,  295.8870,  238.2055758,
 2016-Jan-01 00:00, , , 282.3348,  2.0484,   -0.00006,  300.7652,  239.4749812,
 2017-Jan-01 00:00, , , 283.6116,  2.0178,    0.00007,  305.6962,  240.7513083,
 2018-Jan-01 00:00, , , 284.8883,  1.9862,    0.00020,  309.8889,  242.0276494,
 2019-Jan-01 00:00, , , 286.1681,  1.9536,    0.00030,  312.5285,  243.3074035,
 2020-Jan-01 00:00, , , 287.4506,  1.9200,    0.00035,  313.6865,  244.5900714,
 2021-Jan-01 00:00, , , 288.7387,  1.8854,    0.00032,  313.3176,  245.8783373,
 2022-Jan-01 00:00, , , 290.0243,  1.8499,    0.00023,  311.5472,  247.1641970,
 2023-Jan-01 00:00, , , 291.3102,  1.8135,    0.00010,  309.1662,  248.4501092,
 2024-Jan-01 00:00, , , 292.5958,  1.7762,   -0.00004,  306.8933,  249.7355185,
 2025-Jan-01 00:00, , , 293.8848,  1.7379,   -0.00014,  305.8085,  251.0241514,
 2026-Jan-01 00:00, , , 295.1707,  1.6988,   -0.00018,  306.7795,  252.3096070,
 2027-Jan-01 00:00, , , 296.4579,  1.6587,   -0.00016,  309.4595,  253.5964046,
 2028-Jan-01 00:00, , , 297.7469,  1.6176,   -0.00010,  313.5062,  254.8853605,
 2029-Jan-01 00:00, , , 299.0420,  1.5755,   -0.00001,  317.8227,  256.1805348,
 2030-Jan-01 00:00, , , 300.3363,  1.5326,    0.00008,  321.4385,  257.4752293,
 2031-Jan-01 00:00, , , 301.6334,  1.4889,    0.00013,  324.0884,  258.7728901,
 2032-Jan-01 00:00, , , 302.9330,  1.4444,    0.00014,  325.3345,  260.0731981,
 2033-Jan-01 00:00, , , 304.2380,  1.3990,    0.00008,  325.2407,  261.3790599,
 2034-Jan-01 00:00, , , 305.5404,  1.3530,   -0.00004,  324.1489,  262.6822578,
 2035-Jan-01 00:00, , , 306.8430,  1.3064,   -0.00018,  322.3539,  263.9853717,
